IRIDIUM 166             
1 43570U 18061B   25021.75224945  .00000353  00000+0  11905-3 0  9992
2 43570  86.3947 270.4394 0002311  91.4903 268.6558 14.34217084340090
IRIDIUM 158             
1 43571U 18061C   25022.13914772  .00000288  00000+0  95649-4 0  9995
2 43571  86.3948 270.2876 0001881  93.0353 267.1058 14.34217929340124
IRIDIUM 165             
1 43572U 18061D   25021.74590799 -.00000133  00000+0 -54531-4 0  9997
2 43572  86.3954 270.4886 0002024  82.2512 277.8913 14.34217359340082
IRIDIUM 155             
1 43573U 18061E   25021.77761450  .00000032  00000+0  45261-5 0  9992
2 43573  86.3949 270.3699 0002076  93.2640 266.8793 14.34215773340058
IRIDIUM 154             
1 43574U 18061F   25021.75859212 -.00000048  00000+0 -24257-4 0  9995
2 43574  86.3956 270.4856 0001962  84.9321 275.2098 14.34218622340103
IRIDIUM 163             
1 43575U 18061G   25021.73956518  .00000022  00000+0  66139-6 0  9998
2 43575  86.3951 270.4253 0001809  84.6858 275.4544 14.34217560340076
IRIDIUM 156             
1 43576U 18061H   25022.13280484  .00000253  00000+0  83410-4 0  9991
2 43576  86.3950 270.2676 0002155  95.6443 264.4998 14.34217214340112
IRIDIUM 164             
1 43577U 18061J   25021.76493354  .00000640  00000+0  22155-3 0  9990
2 43577  86.3951 270.4536 0002198  79.7111 280.4332 14.34217929340116
